{"type": "FeatureCollection", "features": [{"type": "Feature", "id": "mowable-1", "properties": {"source": "vision_service_geospatial", "mode": "manmade_exclusion_then_vegetation", "imageryMode": "ndvi", "detection_mode": "manmade_exclusion_then_vegetation", "ndviThreshold": 0.22, "townLawnNdviThreshold": 0.16, "ndviUpperLimit": null, "rgbFilterUsed": true, "visibleThreshold": 6.0, "excessGreenMin": 1.2000000000000002, "saturationMin": 4.5, "brightnessMin": 40.0, "dynamicBrightnessMin": 57.33, "textureScore": 23.754, "areaSqft": 143197.52}, "geometry": {"type": "Polygon", "coordinates": [[[-94.31791448571428, 36.46398587857142], [-94.31791448571428, 36.46291412142856], [-94.31908857142858, 36.46291412142856], [-94.31908857142858, 36.46293027857142], [-94.31909395714285, 36.46293027857142], [-94.31909395714285, 36.46294104999999], [-94.31909934285714, 36.46294104999999], [-94.31909934285714, 36.46295182142856], [-94.31910472857143, 36.46295182142856], [-94.31910472857143, 36.46296797857142], [-94.31911011428572, 36.46296797857142], [-94.31911011428572, 36.46297874999999], [-94.3191155, 36.46297874999999], [-94.3191155, 36.46298952142856], [-94.31912088571428, 36.46298952142856], [-94.31912088571428, 36.46300567857142], [-94.31912627142857, 36.46300567857142], [-94.31912627142857, 36.46301644999999], [-94.31913165714286, 36.46301644999999], [-94.31913165714286, 36.46302722142856], [-94.31913704285715, 36.46302722142856], [-94.31913704285715, 36.46304337857142], [-94.31914242857142, 36.46304337857142], [-94.31914242857142, 36.46304876428571], [-94.31914781428571, 36.46304876428571], [-94.31914781428571, 36.46306492142856], [-94.3191532, 36.46306492142856], [-94.3191532, 36.46307569285713], [-94.31915858571429, 36.46307569285713], [-94.31915858571429, 36.46309184999999], [-94.31916397142857, 36.46309184999999], [-94.31916397142857, 36.46310262142856], [-94.31916935714285, 36.46310262142856], [-94.31916935714285, 36.46311877857142], [-94.31917474285714, 36.46311877857142], [-94.31917474285714, 36.46312954999999], [-94.31918012857143, 36.46312954999999], [-94.31918012857143, 36.46314570714285], [-94.31918551428572, 36.46314570714285], [-94.31918551428572, 36.46379737857142], [-94.31918012857143, 36.46379737857142], [-94.31918012857143, 36.46379199285714], [-94.31914781428571, 36.46379199285714], [-94.31914781428571, 36.46378660714285], [-94.3191532, 36.46378660714285], [-94.3191532, 36.46375967857142], [-94.31916397142857, 36.46375967857142], [-94.31916397142857, 36.46375429285714], [-94.31916935714285, 36.46375429285714], [-94.31916935714285, 36.46371659285714], [-94.31916397142857, 36.46371659285714], [-94.31916397142857, 36.46370043571428], [-94.31915858571429, 36.46370043571428], [-94.31915858571429, 36.46368966428571], [-94.31914781428571, 36.46368966428571], [-94.31914781428571, 36.46367889285714], [-94.31913704285715, 36.46367889285714], [-94.31913704285715, 36.46367350714285], [-94.31909395714285, 36.46367350714285], [-94.31909395714285, 36.46371120714285], [-94.31909934285714, 36.46371120714285], [-94.31909934285714, 36.46372197857142], [-94.31908318571429, 36.46372197857142], [-94.31908318571429, 36.46377583571428], [-94.31911011428572, 36.46377583571428], [-94.31911011428572, 36.46379199285714], [-94.31912627142857, 36.46379199285714], [-94.31912627142857, 36.46380276428571], [-94.31912088571428, 36.46380276428571], [-94.31912088571428, 36.46385123571428], [-94.31912627142857, 36.46385123571428], [-94.31912627142857, 36.46385662142857], [-94.31916397142857, 36.46385662142857], [-94.31916397142857, 36.46386200714285], [-94.31918551428572, 36.46386200714285], [-94.31918551428572, 36.46389970714285], [-94.31918012857143, 36.46389970714285], [-94.31918012857143, 36.46393740714285], [-94.31918551428572, 36.46393740714285], [-94.31918551428572, 36.46398587857142], [-94.31791448571428, 36.46398587857142]]]}}]}