{"type": "FeatureCollection", "features": [{"type": "Feature", "id": "mowable-1", "properties": {"source": "vision_service_geospatial", "mode": "ndvi", "ndviThreshold": 0.25, "ndviUpperLimit": 0.72, "rgbFilterUsed": true, "visibleThreshold": 6.0, "excessGreenMin": 6.0, "saturationMin": 6.0, "brightnessMin": 40.0, "dynamicBrightnessMin": 62.0, "textureScore": 17.474, "areaSqft": 2170.78}, "geometry": {"type": "Polygon", "coordinates": [[[-94.2229190625, 36.3720115625], [-94.2229190625, 36.372005781249996], [-94.222916171875, 36.372005781249996], [-94.222916171875, 36.37199421875], [-94.222904609375, 36.37199421875], [-94.222904609375, 36.371985546874996], [-94.22290749999999, 36.371985546874996], [-94.22290749999999, 36.371956640624994], [-94.22291039062499, 36.371956640624994], [-94.22291039062499, 36.371953749999996], [-94.222916171875, 36.371953749999996], [-94.222916171875, 36.371950859375], [-94.22292773437499, 36.371950859375], [-94.22292773437499, 36.37193640624999], [-94.22290171875, 36.37193640624999], [-94.22290171875, 36.37191617187499], [-94.222898828125, 36.37191617187499], [-94.222898828125, 36.371887265625], [-94.222904609375, 36.371887265625], [-94.222904609375, 36.371858359375], [-94.222875703125, 36.371858359375], [-94.222875703125, 36.37185546874999], [-94.22286703124999, 36.37185546874999], [-94.22286703124999, 36.371852578124994], [-94.222858359375, 36.371852578124994], [-94.222858359375, 36.371846796875], [-94.22285546875, 36.371846796875], [-94.22285546875, 36.371838125], [-94.22286414062499, 36.371838125], [-94.22286414062499, 36.371835234375], [-94.22286992187499, 36.371835234375], [-94.22286992187499, 36.371817890624996], [-94.222858359375, 36.371817890624996], [-94.222858359375, 36.37181210937499], [-94.222852578125, 36.37181210937499], [-94.222852578125, 36.37180343749999], [-94.22286414062499, 36.37180343749999], [-94.22286414062499, 36.371786093749996], [-94.22286703124999, 36.371786093749996], [-94.22286703124999, 36.37178320312499], [-94.22286992187499, 36.37178320312499], [-94.22286992187499, 36.37177453125], [-94.22288437499999, 36.37177453125], [-94.22288437499999, 36.371765859374996], [-94.2228959375, 36.371765859374996], [-94.2228959375, 36.371754296875], [-94.222976875, 36.371754296875], [-94.222976875, 36.37176007812499], [-94.222979765625, 36.37176007812499], [-94.222979765625, 36.37176296874999], [-94.22298265625, 36.37176296874999], [-94.22298265625, 36.371768749999994], [-94.222985546875, 36.371768749999994], [-94.222985546875, 36.37177164062499], [-94.223, 36.37177164062499], [-94.223, 36.37178320312499], [-94.223002890625, 36.37178320312499], [-94.223002890625, 36.37179187499999], [-94.223008671875, 36.37179187499999], [-94.223008671875, 36.371794765625], [-94.223023125, 36.371794765625], [-94.223023125, 36.371800546874994], [-94.223026015625, 36.371800546874994], [-94.223026015625, 36.37181210937499], [-94.223020234375, 36.37181210937499], [-94.223020234375, 36.371817890624996], [-94.22301734375, 36.371817890624996], [-94.22301734375, 36.37182367187499], [-94.22296820312499, 36.37182367187499], [-94.22296820312499, 36.371829453124995], [-94.222945078125, 36.371829453124995], [-94.222945078125, 36.37184390624999], [-94.222956640625, 36.37184390624999], [-94.222956640625, 36.371849687499996], [-94.2229653125, 36.371849687499996], [-94.2229653125, 36.371858359375], [-94.22295953125, 36.371858359375], [-94.22295953125, 36.371861249999995], [-94.222956640625, 36.371861249999995], [-94.222956640625, 36.371887265625], [-94.22295953125, 36.371887265625], [-94.22295953125, 36.37189593749999], [-94.2229653125, 36.37189593749999], [-94.2229653125, 36.371898828125], [-94.22296820312499, 36.371898828125], [-94.22296820312499, 36.371913281249995], [-94.2229653125, 36.371913281249995], [-94.2229653125, 36.3719190625], [-94.222962421875, 36.3719190625], [-94.222962421875, 36.371933515624995], [-94.22295953125, 36.371933515624995], [-94.22295953125, 36.371956640624994], [-94.22294796874999, 36.371956640624994], [-94.22294796874999, 36.37197109375], [-94.22295085937499, 36.37197109375], [-94.22295085937499, 36.371973984374996], [-94.222956640625, 36.371973984374996], [-94.222956640625, 36.371979765625], [-94.222962421875, 36.371979765625], [-94.222962421875, 36.37198843749999], [-94.22297109374999, 36.37198843749999], [-94.22297109374999, 36.372], [-94.2229421875, 36.372], [-94.2229421875, 36.372002890625], [-94.222939296875, 36.372002890625], [-94.222939296875, 36.372008671874994], [-94.22292773437499, 36.372008671874994], [-94.22292773437499, 36.3720115625], [-94.2229190625, 36.3720115625]]]}}, {"type": "Feature", "id": "mowable-2", "properties": {"source": "vision_service_geospatial", "mode": "ndvi", "ndviThreshold": 0.25, "ndviUpperLimit": 0.72, "rgbFilterUsed": true, "visibleThreshold": 6.0, "excessGreenMin": 6.0, "saturationMin": 6.0, "brightnessMin": 40.0, "dynamicBrightnessMin": 62.0, "textureScore": 17.474, "areaSqft": 8986.54}, "geometry": {"type": "Polygon", "coordinates": [[[-94.2230809375, 36.372245703124996], [-94.2230809375, 36.3722428125], [-94.2230578125, 36.3722428125], [-94.2230578125, 36.372239921875], [-94.22305203124999, 36.372239921875], [-94.22305203124999, 36.37223703125], [-94.223043359375, 36.37223703125], [-94.223043359375, 36.37223125], [-94.223023125, 36.37223125], [-94.223023125, 36.372239921875], [-94.223020234375, 36.372239921875], [-94.223020234375, 36.372245703124996], [-94.22299421875, 36.372245703124996], [-94.22299421875, 36.3722428125], [-94.22298265625, 36.3722428125], [-94.22298265625, 36.372239921875], [-94.22296820312499, 36.372239921875], [-94.22296820312499, 36.3722428125], [-94.222939296875, 36.3722428125], [-94.222939296875, 36.372245703124996], [-94.222881484375, 36.372245703124996], [-94.222881484375, 36.37223703125], [-94.2228959375, 36.37223703125], [-94.2228959375, 36.372222578125], [-94.222875703125, 36.372222578125], [-94.222875703125, 36.372208125], [-94.22284390624999, 36.372208125], [-94.22284390624999, 36.372228359375], [-94.222838125, 36.372228359375], [-94.222838125, 36.37223703125], [-94.22282656249999, 36.37223703125], [-94.22282656249999, 36.372245703124996], [-94.222817890625, 36.372245703124996], [-94.222817890625, 36.37223125], [-94.222815, 36.37223125], [-94.222815, 36.372228359375], [-94.222812109375, 36.372228359375], [-94.222812109375, 36.372225468749996], [-94.22280921875, 36.372225468749996], [-94.22280921875, 36.372216796875], [-94.222812109375, 36.372216796875], [-94.222812109375, 36.372170546875], [-94.222815, 36.372170546875], [-94.222815, 36.37216765625], [-94.22282367187499, 36.37216765625], [-94.22282367187499, 36.372164765625], [-94.222841015625, 36.372164765625], [-94.222841015625, 36.37216765625], [-94.22286125, 36.37216765625], [-94.22286125, 36.3721965625], [-94.22289015624999, 36.3721965625], [-94.22289015624999, 36.372193671874996], [-94.222904609375, 36.372193671874996], [-94.222904609375, 36.372185], [-94.22291039062499, 36.372185], [-94.22291039062499, 36.372176328125], [-94.2229190625, 36.372176328125], [-94.2229190625, 36.372170546875], [-94.222921953125, 36.372170546875], [-94.222921953125, 36.37216765625], [-94.22293062499999, 36.37216765625], [-94.22293062499999, 36.372153203124995], [-94.222898828125, 36.372153203124995], [-94.222898828125, 36.37214453125], [-94.22290171875, 36.37214453125], [-94.22290171875, 36.372124296875], [-94.22288437499999, 36.372124296875], [-94.22288437499999, 36.372141640624996], [-94.222881484375, 36.372141640624996], [-94.222881484375, 36.37214453125], [-94.22286703124999, 36.37214453125], [-94.22286703124999, 36.372147421875], [-94.222852578125, 36.372147421875], [-94.222852578125, 36.3721271875], [-94.222835234375, 36.3721271875], [-94.222835234375, 36.372130078125], [-94.22282367187499, 36.372130078125], [-94.22282367187499, 36.37213875], [-94.222817890625, 36.37213875], [-94.222817890625, 36.372141640624996], [-94.22280054687499, 36.372141640624996], [-94.22280054687499, 36.372130078125], [-94.22278609374999, 36.372130078125], [-94.22278609374999, 36.372106953125], [-94.22278320312499, 36.372106953125], [-94.22278320312499, 36.37209828125], [-94.22278031249999, 36.37209828125], [-94.22278031249999, 36.372095390625], [-94.222777421875, 36.372095390625], [-94.222777421875, 36.37208671875], [-94.22278609374999, 36.37208671875], [-94.22278609374999, 36.372089609374996], [-94.222791875, 36.372089609374996], [-94.222791875, 36.3720925], [-94.222794765625, 36.3720925], [-94.222794765625, 36.37209828125], [-94.22279765625, 36.37209828125], [-94.22279765625, 36.372101171874995], [-94.22280343749999, 36.372101171874995], [-94.22280343749999, 36.372109843749996], [-94.22280632812499, 36.372109843749996], [-94.22280632812499, 36.372112734374994], [-94.222812109375, 36.372112734374994], [-94.222812109375, 36.372115625], [-94.222829453125, 36.372115625], [-94.222829453125, 36.372112734374994], [-94.222838125, 36.372112734374994], [-94.222838125, 36.37209828125], [-94.222835234375, 36.37209828125], [-94.222835234375, 36.372095390625], [-94.222829453125, 36.372095390625], [-94.222829453125, 36.372089609374996], [-94.22282078125, 36.372089609374996], [-94.22282078125, 36.372078046875], [-94.22282367187499, 36.372078046875], [-94.22282367187499, 36.37207515625], [-94.222829453125, 36.37207515625], [-94.222829453125, 36.372072265625], [-94.22283234375, 36.372072265625], [-94.22283234375, 36.372066484375], [-94.22284968749999, 36.372066484375], [-94.22284968749999, 36.37206359375], [-94.22286703124999, 36.37206359375], [-94.22286703124999, 36.372057812499996], [-94.22286992187499, 36.372057812499996], [-94.22286992187499, 36.372054921875], [-94.222893046875, 36.372054921875], [-94.222893046875, 36.372049140624995], [-94.2228959375, 36.372049140624995], [-94.2228959375, 36.372037578124996], [-94.22290171875, 36.372037578124996], [-94.22290171875, 36.3720346875], [-94.22291039062499, 36.3720346875], [-94.22291039062499, 36.372028906249994], [-94.22292773437499, 36.372028906249994], [-94.22292773437499, 36.372026015624996], [-94.222939296875, 36.372026015624996], [-94.222939296875, 36.3720346875], [-94.222979765625, 36.3720346875], [-94.222979765625, 36.372020234375], [-94.22297109374999, 36.372020234375], [-94.22297109374999, 36.372002890625], [-94.22298843749999, 36.372002890625], [-94.22298843749999, 36.372026015624996], [-94.22301156249999, 36.372026015624996], [-94.22301156249999, 36.372017343749995], [-94.223023125, 36.372017343749995], [-94.223023125, 36.372026015624996], [-94.22304625, 36.372026015624996], [-94.22304625, 36.3720115625], [-94.22305492187499, 36.3720115625], [-94.22305492187499, 36.372014453125], [-94.223060703125, 36.372014453125], [-94.223060703125, 36.372023125], [-94.22307226562499, 36.372023125], [-94.22307226562499, 36.372037578124996], [-94.223078046875, 36.372037578124996], [-94.223078046875, 36.372040468749994], [-94.22309539062499, 36.372040468749994], [-94.22309539062499, 36.372014453125], [-94.2231040625, 36.372014453125], [-94.2231040625, 36.37199421875], [-94.223083828125, 36.37199421875], [-94.223083828125, 36.371997109374995], [-94.22307515624999, 36.371997109374995], [-94.22307515624999, 36.37199421875], [-94.22307226562499, 36.37199421875], [-94.22307226562499, 36.37198265625], [-94.223069375, 36.37198265625], [-94.223069375, 36.371976874999994], [-94.223060703125, 36.371976874999994], [-94.223060703125, 36.371956640624994], [-94.223066484375, 36.371956640624994], [-94.223066484375, 36.371953749999996], [-94.223069375, 36.371953749999996], [-94.223069375, 36.37194796874999], [-94.2230809375, 36.37194796874999], [-94.2230809375, 36.371945078124995], [-94.223083828125, 36.371945078124995], [-94.223083828125, 36.3719421875], [-94.22309828125, 36.3719421875], [-94.22309828125, 36.371945078124995], [-94.22313296875, 36.371945078124995], [-94.22313296875, 36.371930625], [-94.223130078125, 36.371930625], [-94.223130078125, 36.37192773437499], [-94.223124296875, 36.37192773437499], [-94.223124296875, 36.371924843749994], [-94.22311562499999, 36.371924843749994], [-94.22311562499999, 36.37191617187499], [-94.223118515625, 36.37191617187499], [-94.223118515625, 36.371898828125], [-94.223130078125, 36.371898828125], [-94.223130078125, 36.37187859375], [-94.22313296875, 36.37187859375], [-94.22313296875, 36.37185546874999], [-94.223130078125, 36.37185546874999], [-94.223130078125, 36.37184390624999], [-94.22313875, 36.37184390624999], [-94.22313875, 36.371861249999995], [-94.223141640625, 36.371861249999995], [-94.223141640625, 36.371872812499994], [-94.22314453125, 36.371872812499994], [-94.22314453125, 36.37187570312499], [-94.223147421875, 36.37187570312499], [-94.223147421875, 36.371887265625], [-94.2231734375, 36.371887265625], [-94.2231734375, 36.37188437499999], [-94.223182109375, 36.37188437499999], [-94.223182109375, 36.371887265625], [-94.2231965625, 36.371887265625], [-94.2231965625, 36.37188437499999], [-94.223205234375, 36.37188437499999], [-94.223205234375, 36.37187859375], [-94.22321390625, 36.37187859375], [-94.22321390625, 36.371861249999995], [-94.223211015625, 36.371861249999995], [-94.223211015625, 36.371852578124994], [-94.223216796875, 36.371852578124994], [-94.223216796875, 36.371838125], [-94.223222578125, 36.371838125], [-94.223222578125, 36.371835234375], [-94.22322546875, 36.371835234375], [-94.22322546875, 36.371829453124995], [-94.223234140625, 36.371829453124995], [-94.223234140625, 36.371835234375], [-94.22323992187499, 36.371835234375], [-94.22323992187499, 36.37184390624999], [-94.223228359375, 36.37184390624999], [-94.223228359375, 36.371858359375], [-94.223234140625, 36.371858359375], [-94.223234140625, 36.37187570312499], [-94.2232428125, 36.37187570312499], [-94.2232428125, 36.37188437499999], [-94.223245703125, 36.37188437499999], [-94.223245703125, 36.371887265625], [-94.223251484375, 36.371887265625], [-94.223251484375, 36.37189593749999], [-94.2232428125, 36.37189593749999], [-94.2232428125, 36.371898828125], [-94.22322546875, 36.371898828125], [-94.22322546875, 36.371913281249995], [-94.223234140625, 36.371913281249995], [-94.223234140625, 36.371924843749994], [-94.223222578125, 36.371924843749994], [-94.223222578125, 36.371933515624995], [-94.22321968749999, 36.371933515624995], [-94.22321968749999, 36.371939296875], [-94.223211015625, 36.371939296875], [-94.223211015625, 36.371933515624995], [-94.22320234375, 36.371933515624995], [-94.22320234375, 36.371930625], [-94.223187890625, 36.371930625], [-94.223187890625, 36.371924843749994], [-94.22316765625, 36.371924843749994], [-94.22316765625, 36.371930625], [-94.223164765625, 36.371930625], [-94.223164765625, 36.371962421875], [-94.223158984375, 36.371962421875], [-94.223158984375, 36.371965312499995], [-94.223141640625, 36.371965312499995], [-94.223141640625, 36.37196820312499], [-94.22313875, 36.37196820312499], [-94.22313875, 36.37198843749999], [-94.22313585937499, 36.37198843749999], [-94.22313585937499, 36.372], [-94.22311562499999, 36.372], [-94.22311562499999, 36.372017343749995], [-94.223124296875, 36.372017343749995], [-94.223124296875, 36.372023125], [-94.223141640625, 36.372023125], [-94.223141640625, 36.372020234375], [-94.2231503125, 36.372020234375], [-94.2231503125, 36.372023125], [-94.22316765625, 36.372023125], [-94.22316765625, 36.372020234375], [-94.223182109375, 36.372020234375], [-94.223182109375, 36.372040468749994], [-94.22317632812499, 36.372040468749994], [-94.22317632812499, 36.37204625], [-94.2231734375, 36.37204625], [-94.2231734375, 36.37205203125], [-94.223170546875, 36.37205203125], [-94.223170546875, 36.372054921875], [-94.22315609374999, 36.372054921875], [-94.22315609374999, 36.37206359375], [-94.223153203125, 36.37206359375], [-94.223153203125, 36.372078046875], [-94.223185, 36.372078046875], [-94.223185, 36.372080937499994], [-94.223211015625, 36.372080937499994], [-94.223211015625, 36.372078046875], [-94.22321390625, 36.372078046875], [-94.22321390625, 36.37205203125], [-94.22321968749999, 36.37205203125], [-94.22321968749999, 36.372049140624995], [-94.22322546875, 36.372049140624995], [-94.22322546875, 36.372037578124996], [-94.223234140625, 36.372037578124996], [-94.223234140625, 36.37204625], [-94.22323125, 36.37204625], [-94.22323125, 36.372066484375], [-94.223234140625, 36.372066484375], [-94.223234140625, 36.372089609374996], [-94.223257265625, 36.372089609374996], [-94.223257265625, 36.37208671875], [-94.2232659375, 36.37208671875], [-94.2232659375, 36.372089609374996], [-94.22328039062499, 36.372089609374996], [-94.22328039062499, 36.372069374999995], [-94.2232775, 36.372069374999995], [-94.2232775, 36.372060703124994], [-94.22328039062499, 36.372060703124994], [-94.22328039062499, 36.372057812499996], [-94.223286171875, 36.372057812499996], [-94.223286171875, 36.372176328125], [-94.22328328125, 36.372176328125], [-94.22328328125, 36.3721965625], [-94.22328039062499, 36.3721965625], [-94.22328039062499, 36.372205234375], [-94.2232775, 36.372205234375], [-94.2232775, 36.372208125], [-94.223274609375, 36.372208125], [-94.223274609375, 36.372211015625], [-94.2232659375, 36.372211015625], [-94.2232659375, 36.372208125], [-94.223263046875, 36.372208125], [-94.223263046875, 36.372205234375], [-94.22326015624999, 36.372205234375], [-94.22326015624999, 36.3721965625], [-94.223263046875, 36.3721965625], [-94.223263046875, 36.372187890625], [-94.2232659375, 36.372187890625], [-94.2232659375, 36.372170546875], [-94.223263046875, 36.372170546875], [-94.223263046875, 36.37215609375], [-94.22326015624999, 36.37215609375], [-94.22326015624999, 36.37214453125], [-94.223263046875, 36.37214453125], [-94.223263046875, 36.372130078125], [-94.22323992187499, 36.372130078125], [-94.22323992187499, 36.3721271875], [-94.22321390625, 36.3721271875], [-94.22321390625, 36.372130078125], [-94.223205234375, 36.372130078125], [-94.223205234375, 36.372132968749995], [-94.22320234375, 36.372132968749995], [-94.22320234375, 36.372135859375], [-94.223199453125, 36.372135859375], [-94.223199453125, 36.372158984375], [-94.2231965625, 36.372158984375], [-94.2231965625, 36.372164765625], [-94.223193671875, 36.372164765625], [-94.223193671875, 36.372176328125], [-94.22319078125, 36.372176328125], [-94.22319078125, 36.37217921875], [-94.223187890625, 36.37217921875], [-94.223187890625, 36.372185], [-94.223185, 36.372185], [-94.223185, 36.372187890625], [-94.223182109375, 36.372187890625], [-94.223182109375, 36.372193671874996], [-94.22317921875, 36.372193671874996], [-94.22317921875, 36.3721965625], [-94.22317632812499, 36.3721965625], [-94.22317632812499, 36.372199453125], [-94.2231734375, 36.372199453125], [-94.2231734375, 36.37220234375], [-94.223170546875, 36.37220234375], [-94.223170546875, 36.372205234375], [-94.22316765625, 36.372205234375], [-94.22316765625, 36.372208125], [-94.223158984375, 36.372208125], [-94.223158984375, 36.372211015625], [-94.22313585937499, 36.372211015625], [-94.22313585937499, 36.3721965625], [-94.2231271875, 36.3721965625], [-94.2231271875, 36.372193671874996], [-94.223118515625, 36.372193671874996], [-94.223118515625, 36.372187890625], [-94.2231040625, 36.372187890625], [-94.2231040625, 36.372193671874996], [-94.223101171875, 36.372193671874996], [-94.223101171875, 36.372213906249996], [-94.223089609375, 36.372213906249996], [-94.223089609375, 36.372234140625], [-94.22309539062499, 36.372234140625], [-94.22309539062499, 36.372245703124996], [-94.2230809375, 36.372245703124996]], [[-94.222939296875, 36.372234140625], [-94.22295375, 36.372234140625], [-94.22295375, 36.37223125], [-94.222956640625, 36.37223125], [-94.222956640625, 36.372228359375], [-94.2229653125, 36.372228359375], [-94.2229653125, 36.372222578125], [-94.222976875, 36.372222578125], [-94.222976875, 36.372193671874996], [-94.22298265625, 36.372193671874996], [-94.22298265625, 36.37217921875], [-94.22296820312499, 36.37217921875], [-94.22296820312499, 36.372176328125], [-94.22295085937499, 36.372176328125], [-94.22295085937499, 36.37217921875], [-94.222945078125, 36.37217921875], [-94.222945078125, 36.372187890625], [-94.2229421875, 36.372187890625], [-94.2229421875, 36.372193671874996], [-94.222939296875, 36.372193671874996], [-94.222939296875, 36.3721965625], [-94.22293062499999, 36.3721965625], [-94.22293062499999, 36.372213906249996], [-94.222921953125, 36.372213906249996], [-94.222921953125, 36.37223703125], [-94.222939296875, 36.37223703125], [-94.222939296875, 36.372234140625]]]}}]}