{"type": "FeatureCollection", "features": [{"type": "Feature", "id": "mowable-1", "properties": {"source": "vision_service_geospatial", "mode": "manmade_exclusion_then_vegetation", "imageryMode": "ndvi", "detection_mode": "manmade_exclusion_then_vegetation", "ndviThreshold": 0.2, "townLawnNdviThreshold": 0.14, "ndviUpperLimit": null, "rgbFilterUsed": true, "visibleThreshold": 6.0, "excessGreenMin": 1.2000000000000002, "saturationMin": 4.5, "brightnessMin": 40.0, "dynamicBrightnessMin": 62.0, "textureScore": 14.313, "areaSqft": 36929.53}, "geometry": {"type": "Polygon", "coordinates": [[[-94.21772705507246, 36.367022313043485], [-94.21772705507246, 36.36701693333334], [-94.21757104347826, 36.36701693333334], [-94.21757104347826, 36.36701155362319], [-94.21754414492753, 36.36701155362319], [-94.21754414492753, 36.3670007942029], [-94.21751186666665, 36.3670007942029], [-94.21751186666665, 36.36701155362319], [-94.21702769275362, 36.36701155362319], [-94.21702769275362, 36.366995414492756], [-94.21701693333333, 36.366995414492756], [-94.21701693333333, 36.366979275362326], [-94.21701155362318, 36.366979275362326], [-94.21701155362318, 36.36697389565218], [-94.21698465507245, 36.36697389565218], [-94.21698465507245, 36.36701155362319], [-94.21682864347825, 36.36701155362319], [-94.21682864347825, 36.36700617391305], [-94.21681250434781, 36.36700617391305], [-94.21681250434781, 36.3670007942029], [-94.21679636521738, 36.3670007942029], [-94.21679636521738, 36.366995414492756], [-94.21679098550725, 36.366995414492756], [-94.21679098550725, 36.36696313623189], [-94.21686092173913, 36.36696313623189], [-94.21686092173913, 36.366979275362326], [-94.21689857971013, 36.366979275362326], [-94.21689857971013, 36.36694699710145], [-94.21686630144927, 36.36694699710145], [-94.21686630144927, 36.36689320000001], [-94.21685554202898, 36.36689320000001], [-94.21685554202898, 36.36687706086957], [-94.21689319999999, 36.36687706086957], [-94.21689319999999, 36.36686630144928], [-94.21691471884057, 36.36686630144928], [-94.21691471884057, 36.366871681159424], [-94.21695237681159, 36.366871681159424], [-94.21695237681159, 36.36677484637681], [-94.21695775652174, 36.36677484637681], [-94.21695775652174, 36.36675870724638], [-94.21824350724637, 36.36675870724638], [-94.21824350724637, 36.36689857971015], [-94.21821660869564, 36.36689857971015], [-94.21821660869564, 36.366925478260875], [-94.21824350724637, 36.366925478260875], [-94.21824350724637, 36.367022313043485], [-94.21772705507246, 36.367022313043485]]]}}, {"type": "Feature", "id": "mowable-2", "properties": {"source": "vision_service_geospatial", "mode": "manmade_exclusion_then_vegetation", "imageryMode": "ndvi", "detection_mode": "manmade_exclusion_then_vegetation", "ndviThreshold": 0.2, "townLawnNdviThreshold": 0.14, "ndviUpperLimit": null, "rgbFilterUsed": true, "visibleThreshold": 6.0, "excessGreenMin": 1.2000000000000002, "saturationMin": 4.5, "brightnessMin": 40.0, "dynamicBrightnessMin": 62.0, "textureScore": 14.313, "areaSqft": 41323.24}, "geometry": {"type": "Polygon", "coordinates": [[[-94.21807135652173, 36.3674795884058], [-94.21807135652173, 36.367468828985515], [-94.21806059710144, 36.367468828985515], [-94.21806059710144, 36.36740965217392], [-94.21806597681159, 36.36740965217392], [-94.21806597681159, 36.36739889275363], [-94.21815743188405, 36.36739889275363], [-94.21815743188405, 36.36739351304348], [-94.21818433043478, 36.36739351304348], [-94.21818433043478, 36.36736661449276], [-94.21817895072464, 36.36736661449276], [-94.21817895072464, 36.367361234782614], [-94.21796376231883, 36.367361234782614], [-94.21796376231883, 36.36735585507247], [-94.21743655072463, 36.36735585507247], [-94.21743655072463, 36.36735047536232], [-94.21717832463767, 36.36735047536232], [-94.21717832463767, 36.367345095652176], [-94.21700617391303, 36.367345095652176], [-94.21700617391303, 36.36733971594204], [-94.21698465507245, 36.36733971594204], [-94.21698465507245, 36.3672159826087], [-94.21700617391303, 36.3672159826087], [-94.21700617391303, 36.367189084057976], [-94.2169792753623, 36.367189084057976], [-94.2169792753623, 36.367162185507254], [-94.21697389565216, 36.367162185507254], [-94.21697389565216, 36.36714604637682], [-94.21696851594203, 36.36714604637682], [-94.21696851594203, 36.367135286956525], [-94.21696313623188, 36.367135286956525], [-94.21696313623188, 36.367119147826095], [-94.21695775652174, 36.367119147826095], [-94.21695775652174, 36.36711376811595], [-94.21695237681159, 36.36711376811595], [-94.21695237681159, 36.36710300869566], [-94.21694699710145, 36.36710300869566], [-94.21694699710145, 36.367092249275366], [-94.2169416173913, 36.367092249275366], [-94.2169416173913, 36.3670599710145], [-94.21695237681159, 36.3670599710145], [-94.21695237681159, 36.36705459130435], [-94.21702769275362, 36.36705459130435], [-94.21702769275362, 36.36704921159421], [-94.21711914782608, 36.36704921159421], [-94.21711914782608, 36.36705459130435], [-94.21749034782609, 36.36705459130435], [-94.21749034782609, 36.3670599710145], [-94.21751186666665, 36.3670599710145], [-94.21751186666665, 36.36707073043479], [-94.21754414492753, 36.36707073043479], [-94.21754414492753, 36.3670599710145], [-94.2178507884058, 36.3670599710145], [-94.2178507884058, 36.367065350724644], [-94.2178992057971, 36.367065350724644], [-94.2178992057971, 36.3670599710145], [-94.21797452173912, 36.3670599710145], [-94.21797452173912, 36.367065350724644], [-94.21824350724637, 36.367065350724644], [-94.21824350724637, 36.367431171014495], [-94.21814129275361, 36.367431171014495], [-94.21814129275361, 36.36746344927537], [-94.21810363478261, 36.36746344927537], [-94.21810363478261, 36.3674795884058], [-94.21807135652173, 36.3674795884058]]]}}, {"type": "Feature", "id": "mowable-3", "properties": {"source": "vision_service_geospatial", "mode": "manmade_exclusion_then_vegetation", "imageryMode": "ndvi", "detection_mode": "manmade_exclusion_then_vegetation", "ndviThreshold": 0.2, "townLawnNdviThreshold": 0.14, "ndviUpperLimit": null, "rgbFilterUsed": true, "visibleThreshold": 6.0, "excessGreenMin": 1.2000000000000002, "saturationMin": 4.5, "brightnessMin": 40.0, "dynamicBrightnessMin": 62.0, "textureScore": 14.313, "areaSqft": 20356.13}, "geometry": {"type": "Polygon", "coordinates": [[[-94.21753876521738, 36.367581802898556], [-94.21753876521738, 36.36757642318841], [-94.21726439999999, 36.36757642318841], [-94.21726439999999, 36.367571043478264], [-94.21703307246376, 36.367571043478264], [-94.21703307246376, 36.36757642318841], [-94.21699541449274, 36.36757642318841], [-94.21699541449274, 36.367571043478264], [-94.21698465507245, 36.367571043478264], [-94.21698465507245, 36.36756566376812], [-94.21697389565216, 36.36756566376812], [-94.21697389565216, 36.367484968115946], [-94.21696851594203, 36.367484968115946], [-94.21696851594203, 36.367474208695654], [-94.21695237681159, 36.367474208695654], [-94.21695237681159, 36.367425791304356], [-94.21695775652174, 36.367425791304356], [-94.21695775652174, 36.36742041159421], [-94.2169792753623, 36.36742041159421], [-94.2169792753623, 36.367388133333336], [-94.2169900347826, 36.367388133333336], [-94.2169900347826, 36.3673827536232], [-94.21701155362318, 36.3673827536232], [-94.21701155362318, 36.36742041159421], [-94.21705997101449, 36.36742041159421], [-94.21705997101449, 36.36744193043479], [-94.21712452753623, 36.36744193043479], [-94.21712452753623, 36.367415031884065], [-94.21708148985506, 36.367415031884065], [-94.21708148985506, 36.3673827536232], [-94.21719984347826, 36.3673827536232], [-94.21719984347826, 36.367388133333336], [-94.2175871826087, 36.367388133333336], [-94.2175871826087, 36.36739351304348], [-94.21799066086956, 36.36739351304348], [-94.21799066086956, 36.36739889275363], [-94.2179960405797, 36.36739889275363], [-94.2179960405797, 36.36740427246377], [-94.21800142028985, 36.36740427246377], [-94.21800142028985, 36.36756566376812], [-94.2179960405797, 36.36756566376812], [-94.2179960405797, 36.36757642318841], [-94.21799066086956, 36.36757642318841], [-94.21799066086956, 36.367581802898556], [-94.21753876521738, 36.367581802898556]]]}}, {"type": "Feature", "id": "mowable-4", "properties": {"source": "vision_service_geospatial", "mode": "manmade_exclusion_then_vegetation", "imageryMode": "ndvi", "detection_mode": "manmade_exclusion_then_vegetation", "ndviThreshold": 0.2, "townLawnNdviThreshold": 0.14, "ndviUpperLimit": null, "rgbFilterUsed": true, "visibleThreshold": 6.0, "excessGreenMin": 1.2000000000000002, "saturationMin": 4.5, "brightnessMin": 40.0, "dynamicBrightnessMin": 62.0, "textureScore": 14.313, "areaSqft": 14812.07}, "geometry": {"type": "Polygon", "coordinates": [[[-94.21683940289854, 36.367780852173915], [-94.21683940289854, 36.36777547246378], [-94.21665649275361, 36.36777547246378], [-94.21665649275361, 36.367571043478264], [-94.2166780115942, 36.367571043478264], [-94.2166780115942, 36.36754414492754], [-94.21665649275361, 36.36754414492754], [-94.21665649275361, 36.36746344927537], [-94.2166672521739, 36.36746344927537], [-94.2166672521739, 36.367431171014495], [-94.21665649275361, 36.367431171014495], [-94.21665649275361, 36.36739351304348], [-94.2166672521739, 36.36739351304348], [-94.2166672521739, 36.367415031884065], [-94.21668877101449, 36.367415031884065], [-94.21668877101449, 36.36744731014493], [-94.21673180869564, 36.36744731014493], [-94.21673180869564, 36.36742041159421], [-94.2167264289855, 36.36742041159421], [-94.2167264289855, 36.36739889275363], [-94.21673718840579, 36.36739889275363], [-94.21673718840579, 36.36736661449276], [-94.21672104927535, 36.36736661449276], [-94.21672104927535, 36.36735047536232], [-94.2166672521739, 36.36735047536232], [-94.2166672521739, 36.367328956521746], [-94.21665649275361, 36.367328956521746], [-94.21665649275361, 36.36729129855073], [-94.21666187246376, 36.36729129855073], [-94.21666187246376, 36.3672644], [-94.21668877101449, 36.3672644], [-94.21668877101449, 36.367221362318844], [-94.21668339130434, 36.367221362318844], [-94.21668339130434, 36.367178324637685], [-94.21665649275361, 36.367178324637685], [-94.21665649275361, 36.367081489855074], [-94.21674256811593, 36.367081489855074], [-94.21674256811593, 36.36708686956522], [-94.21675870724637, 36.36708686956522], [-94.21675870724637, 36.367092249275366], [-94.21678022608695, 36.367092249275366], [-94.21678022608695, 36.36709762898551], [-94.21679636521738, 36.36709762898551], [-94.21679636521738, 36.36710300869566], [-94.21680174492752, 36.36710300869566], [-94.21680174492752, 36.367119147826095], [-94.2168340231884, 36.367119147826095], [-94.2168340231884, 36.367124527536234], [-94.21683940289854, 36.367124527536234], [-94.21683940289854, 36.36712990724638], [-94.21684478260869, 36.36712990724638], [-94.21684478260869, 36.367135286956525], [-94.21685016231883, 36.367135286956525], [-94.21685016231883, 36.36714066666667], [-94.21685554202898, 36.36714066666667], [-94.21685554202898, 36.36715142608696], [-94.21686092173913, 36.36715142608696], [-94.21686092173913, 36.36715680579711], [-94.21686630144927, 36.36715680579711], [-94.21686630144927, 36.36716756521739], [-94.21687168115942, 36.36716756521739], [-94.21687168115942, 36.367178324637685], [-94.21687706086956, 36.367178324637685], [-94.21687706086956, 36.367205223188414], [-94.21688244057971, 36.367205223188414], [-94.21688244057971, 36.36725902028986], [-94.21688782028984, 36.36725902028986], [-94.21688782028984, 36.367275159420295], [-94.21689319999999, 36.367275159420295], [-94.21689319999999, 36.36728053913044], [-94.21689857971013, 36.36728053913044], [-94.21689857971013, 36.367328956521746], [-94.21690395942028, 36.367328956521746], [-94.21690395942028, 36.3673827536232], [-94.21689857971013, 36.3673827536232], [-94.21689857971013, 36.367388133333336], [-94.21687706086956, 36.367388133333336], [-94.21687706086956, 36.367371994202905], [-94.21683940289854, 36.367371994202905], [-94.21683940289854, 36.36740427246377], [-94.21687706086956, 36.36740427246377], [-94.21687706086956, 36.36752262608696], [-94.21687168115942, 36.36752262608696], [-94.21687168115942, 36.3675871826087], [-94.21686630144927, 36.3675871826087], [-94.21686630144927, 36.367780852173915], [-94.21683940289854, 36.367780852173915]]]}}, {"type": "Feature", "id": "mowable-5", "properties": {"source": "vision_service_geospatial", "mode": "manmade_exclusion_then_vegetation", "imageryMode": "ndvi", "detection_mode": "manmade_exclusion_then_vegetation", "ndviThreshold": 0.2, "townLawnNdviThreshold": 0.14, "ndviUpperLimit": null, "rgbFilterUsed": true, "visibleThreshold": 6.0, "excessGreenMin": 1.2000000000000002, "saturationMin": 4.5, "brightnessMin": 40.0, "dynamicBrightnessMin": 62.0, "textureScore": 14.313, "areaSqft": 64903.63}, "geometry": {"type": "Polygon", "coordinates": [[[-94.21795838260869, 36.36814129275363], [-94.21795838260869, 36.36813591304348], [-94.21795300289854, 36.36813591304348], [-94.21795300289854, 36.3681251536232], [-94.21791534492753, 36.3681251536232], [-94.21791534492753, 36.36814129275363], [-94.21753338550724, 36.36814129275363], [-94.21753338550724, 36.36811977391305], [-94.21751186666665, 36.36811977391305], [-94.21751186666665, 36.368103634782614], [-94.21750110724638, 36.368103634782614], [-94.21750110724638, 36.36809825507247], [-94.21749034782609, 36.36809825507247], [-94.21749034782609, 36.3680659768116], [-94.21746344927536, 36.3680659768116], [-94.21746344927536, 36.368087495652176], [-94.21745268985507, 36.368087495652176], [-94.21745268985507, 36.3681251536232], [-94.21743655072463, 36.3681251536232], [-94.21743655072463, 36.36814129275363], [-94.21718370434782, 36.36814129275363], [-94.21718370434782, 36.368130533333336], [-94.21715680579709, 36.368130533333336], [-94.21715680579709, 36.36814129275363], [-94.21695775652174, 36.36814129275363], [-94.21695775652174, 36.368071356521746], [-94.21696313623188, 36.368071356521746], [-94.21696313623188, 36.368017559420295], [-94.2169900347826, 36.368017559420295], [-94.2169900347826, 36.36792610434783], [-94.21702231304347, 36.36792610434783], [-94.21702231304347, 36.3679099652174], [-94.21703845217391, 36.3679099652174], [-94.21703845217391, 36.36791534492754], [-94.21709224927535, 36.36791534492754], [-94.21709224927535, 36.36792610434783], [-94.21712990724637, 36.36792610434783], [-94.21712990724637, 36.36791534492754], [-94.21724826086955, 36.36791534492754], [-94.21724826086955, 36.367920724637685], [-94.21737199420289, 36.367920724637685], [-94.21737199420289, 36.36794224347827], [-94.21742041159419, 36.36794224347827], [-94.21742041159419, 36.36793686376812], [-94.21745806956521, 36.36793686376812], [-94.21745806956521, 36.36792610434783], [-94.21752262608695, 36.36792610434783], [-94.21752262608695, 36.36794224347827], [-94.21756028405797, 36.36794224347827], [-94.21756028405797, 36.36792610434783], [-94.2175764231884, 36.36792610434783], [-94.2175764231884, 36.36793686376812], [-94.2176356, 36.36793686376812], [-94.2176356, 36.36796914202899], [-94.21766787826087, 36.36796914202899], [-94.21766787826087, 36.367963762318844], [-94.21767325797101, 36.367963762318844], [-94.21767325797101, 36.36792610434783], [-94.21798528115941, 36.36792610434783], [-94.21798528115941, 36.36788844637682], [-94.21752800579709, 36.36788844637682], [-94.21752800579709, 36.36788306666667], [-94.2173128173913, 36.36788306666667], [-94.2173128173913, 36.36785616811595], [-94.21728591884057, 36.36785616811595], [-94.21728591884057, 36.367861547826095], [-94.21725902028984, 36.367861547826095], [-94.21725902028984, 36.367877686956525], [-94.21702769275362, 36.367877686956525], [-94.21702769275362, 36.36787230724638], [-94.21697389565216, 36.36787230724638], [-94.21697389565216, 36.36786692753624], [-94.21696851594203, 36.36786692753624], [-94.21696851594203, 36.367710915942034], [-94.21697389565216, 36.367710915942034], [-94.21697389565216, 36.367614081159424], [-94.21698465507245, 36.367614081159424], [-94.21698465507245, 36.36760870144928], [-94.21712452753623, 36.36760870144928], [-94.21712452753623, 36.367624840579715], [-94.21716756521738, 36.367624840579715], [-94.21716756521738, 36.36760870144928], [-94.21723212173913, 36.36760870144928], [-94.21723212173913, 36.367614081159424], [-94.21754952463768, 36.367614081159424], [-94.21754952463768, 36.36761946086957], [-94.21810363478261, 36.36761946086957], [-94.21810363478261, 36.367624840579715], [-94.21824350724637, 36.367624840579715], [-94.21824350724637, 36.36814129275363], [-94.21795838260869, 36.36814129275363]], [[-94.21819508985507, 36.36788844637682], [-94.21820584927536, 36.36788844637682], [-94.21820584927536, 36.3678507884058], [-94.21817357101449, 36.3678507884058], [-94.21817357101449, 36.36785616811595], [-94.21816819130434, 36.36785616811595], [-94.21816819130434, 36.36786692753624], [-94.2181143942029, 36.36786692753624], [-94.2181143942029, 36.36788844637682], [-94.21803369855071, 36.36788844637682], [-94.21803369855071, 36.36792610434783], [-94.21813591304347, 36.36792610434783], [-94.21813591304347, 36.36795300289856], [-94.21819508985507, 36.36795300289856], [-94.21819508985507, 36.36788844637682]]]}}, {"type": "Feature", "id": "mowable-6", "properties": {"source": "vision_service_geospatial", "mode": "manmade_exclusion_then_vegetation", "imageryMode": "ndvi", "detection_mode": "manmade_exclusion_then_vegetation", "ndviThreshold": 0.2, "townLawnNdviThreshold": 0.14, "ndviUpperLimit": null, "rgbFilterUsed": true, "visibleThreshold": 6.0, "excessGreenMin": 1.2000000000000002, "saturationMin": 4.5, "brightnessMin": 40.0, "dynamicBrightnessMin": 62.0, "textureScore": 14.313, "areaSqft": 1596.85}, "geometry": {"type": "Polygon", "coordinates": [[[-94.21672104927535, 36.3681251536232], [-94.21672104927535, 36.36807673623189], [-94.21668339130434, 36.36807673623189], [-94.21668339130434, 36.368087495652176], [-94.21665649275361, 36.368087495652176], [-94.21665649275361, 36.367931484057976], [-94.2166672521739, 36.367931484057976], [-94.2166672521739, 36.36794224347827], [-94.21674794782608, 36.36794224347827], [-94.21674794782608, 36.367947623188414], [-94.21675332753622, 36.367947623188414], [-94.21675332753622, 36.36795300289856], [-94.21675870724637, 36.36795300289856], [-94.21675870724637, 36.36804983768116], [-94.21674794782608, 36.36804983768116], [-94.21674794782608, 36.36809287536232], [-94.21674256811593, 36.36809287536232], [-94.21674256811593, 36.3681251536232], [-94.21672104927535, 36.3681251536232]]]}}]}