{"type": "FeatureCollection", "features": [{"type": "Feature", "id": "mowable-1", "properties": {"source": "vision_service_geospatial", "mode": "manmade_exclusion_then_vegetation", "imageryMode": "ndvi", "detection_mode": "manmade_exclusion_then_vegetation", "ndviThreshold": 0.203, "townLawnNdviThreshold": 0.143, "ndviUpperLimit": null, "rgbFilterUsed": true, "visibleThreshold": 6.0, "excessGreenMin": 1.2000000000000002, "saturationMin": 4.5, "brightnessMin": 40.0, "dynamicBrightnessMin": 62.0, "textureScore": 18.677, "areaSqft": 24707.41}, "geometry": {"type": "Polygon", "coordinates": [[[-94.22321968749999, 36.372245703124996], [-94.22321968749999, 36.372239921875], [-94.223222578125, 36.372239921875], [-94.223222578125, 36.372213906249996], [-94.22322546875, 36.372213906249996], [-94.22322546875, 36.37219078125], [-94.223228359375, 36.37219078125], [-94.223228359375, 36.372187890625], [-94.22323125, 36.372187890625], [-94.22323125, 36.372161874999996], [-94.22323703125, 36.372161874999996], [-94.22323703125, 36.372147421875], [-94.22322546875, 36.372147421875], [-94.22322546875, 36.372135859375], [-94.223222578125, 36.372135859375], [-94.223222578125, 36.372132968749995], [-94.223205234375, 36.372132968749995], [-94.223205234375, 36.372158984375], [-94.22320234375, 36.372158984375], [-94.22320234375, 36.372187890625], [-94.223199453125, 36.372187890625], [-94.223199453125, 36.37219078125], [-94.223193671875, 36.37219078125], [-94.223193671875, 36.372193671874996], [-94.223182109375, 36.372193671874996], [-94.223182109375, 36.3722196875], [-94.22317921875, 36.3722196875], [-94.22317921875, 36.372228359375], [-94.22316765625, 36.372228359375], [-94.22316765625, 36.37223125], [-94.22314453125, 36.37223125], [-94.22314453125, 36.372228359375], [-94.2231271875, 36.372228359375], [-94.2231271875, 36.37223703125], [-94.223124296875, 36.37223703125], [-94.223124296875, 36.372245703124996], [-94.22280054687499, 36.372245703124996], [-94.22280054687499, 36.372239921875], [-94.222794765625, 36.372239921875], [-94.222794765625, 36.37223125], [-94.22280632812499, 36.37223125], [-94.22280632812499, 36.372208125], [-94.22280921875, 36.372208125], [-94.22280921875, 36.37219078125], [-94.22280632812499, 36.37219078125], [-94.22280632812499, 36.372164765625], [-94.22280054687499, 36.372164765625], [-94.22280054687499, 36.372158984375], [-94.22277453125, 36.372158984375], [-94.22277453125, 36.372161874999996], [-94.222754296875, 36.372161874999996], [-94.222754296875, 36.372164765625], [-94.22272539062499, 36.372164765625], [-94.22272539062499, 36.372173437499995], [-94.222713828125, 36.372173437499995], [-94.222713828125, 36.37214453125], [-94.22271671875, 36.37214453125], [-94.22271671875, 36.3721271875], [-94.222713828125, 36.3721271875], [-94.222713828125, 36.37198843749999], [-94.2227340625, 36.37198843749999], [-94.2227340625, 36.37199421875], [-94.222736953125, 36.37199421875], [-94.222736953125, 36.371997109374995], [-94.222754296875, 36.371997109374995], [-94.222754296875, 36.37199421875], [-94.22276296874999, 36.37199421875], [-94.22276296874999, 36.37198843749999], [-94.22276585937499, 36.37198843749999], [-94.22276585937499, 36.37197109375], [-94.22277453125, 36.37197109375], [-94.22277453125, 36.37196820312499], [-94.222794765625, 36.37196820312499], [-94.222794765625, 36.371965312499995], [-94.22279765625, 36.371965312499995], [-94.22279765625, 36.37195953125], [-94.22280054687499, 36.37195953125], [-94.22280054687499, 36.371950859375], [-94.22280343749999, 36.371950859375], [-94.22280343749999, 36.37194796874999], [-94.222812109375, 36.37194796874999], [-94.222812109375, 36.3719421875], [-94.22282367187499, 36.3719421875], [-94.22282367187499, 36.371962421875], [-94.22282656249999, 36.371962421875], [-94.22282656249999, 36.371965312499995], [-94.222841015625, 36.371965312499995], [-94.222841015625, 36.37194796874999], [-94.22284679687499, 36.37194796874999], [-94.22284679687499, 36.371945078124995], [-94.22285546875, 36.371945078124995], [-94.22285546875, 36.371965312499995], [-94.22287859375, 36.371965312499995], [-94.22287859375, 36.371962421875], [-94.22289015624999, 36.371962421875], [-94.22289015624999, 36.37194796874999], [-94.22288726562499, 36.37194796874999], [-94.22288726562499, 36.371939296875], [-94.22290171875, 36.371939296875], [-94.22290171875, 36.371901718749996], [-94.222898828125, 36.371901718749996], [-94.222898828125, 36.371887265625], [-94.2228959375, 36.371887265625], [-94.2228959375, 36.371869921874996], [-94.222893046875, 36.371869921874996], [-94.222893046875, 36.37186703125], [-94.2228728125, 36.37186703125], [-94.2228728125, 36.371869921874996], [-94.22285546875, 36.371869921874996], [-94.22285546875, 36.371858359375], [-94.222858359375, 36.371858359375], [-94.222858359375, 36.37184390624999], [-94.22285546875, 36.37184390624999], [-94.22285546875, 36.3718265625], [-94.222841015625, 36.3718265625], [-94.222841015625, 36.37182367187499], [-94.222838125, 36.37182367187499], [-94.222838125, 36.37181210937499], [-94.22284390624999, 36.37181210937499], [-94.22284390624999, 36.371809218749995], [-94.222852578125, 36.371809218749995], [-94.222852578125, 36.371794765625], [-94.222841015625, 36.371794765625], [-94.222841015625, 36.371777421874995], [-94.22284968749999, 36.371777421874995], [-94.22284968749999, 36.37177453125], [-94.222852578125, 36.37177453125], [-94.222852578125, 36.37176296874999], [-94.222858359375, 36.37176296874999], [-94.222858359375, 36.371754296875], [-94.22298265625, 36.371754296875], [-94.22298265625, 36.371768749999994], [-94.22301156249999, 36.371768749999994], [-94.22301156249999, 36.371754296875], [-94.2232659375, 36.371754296875], [-94.2232659375, 36.371765859374996], [-94.223268828125, 36.371765859374996], [-94.223268828125, 36.37177453125], [-94.22327171875, 36.37177453125], [-94.22327171875, 36.37178320312499], [-94.223268828125, 36.37178320312499], [-94.223268828125, 36.371829453124995], [-94.223251484375, 36.371829453124995], [-94.223251484375, 36.371835234375], [-94.22324859375, 36.371835234375], [-94.22324859375, 36.371838125], [-94.22323703125, 36.371838125], [-94.22323703125, 36.37186414062499], [-94.223245703125, 36.37186414062499], [-94.223245703125, 36.371869921874996], [-94.22326015624999, 36.371869921874996], [-94.22326015624999, 36.371872812499994], [-94.2232659375, 36.371872812499994], [-94.2232659375, 36.37188437499999], [-94.223263046875, 36.37188437499999], [-94.223263046875, 36.371904609374994], [-94.2232775, 36.371904609374994], [-94.2232775, 36.371893046874995], [-94.223286171875, 36.371893046874995], [-94.223286171875, 36.372245703124996], [-94.22321968749999, 36.372245703124996]]]}}]}